{"type": "FeatureCollection", "features": [ {"type": "Feature", "properties": {"norad_id": 32451, "name": "FENGYUN 1C DEB", "group": "fengyun-1c-debris", "lat": 59.855487057145595, "lon": 179.6786684759365, "alt_km": 826.7671569324029, "timestamp": "2025-12-27T07:26:25.508383+00:00", "meta": {"OBJECT_NAME": "FENGYUN 1C DEB", "OBJECT_ID": "1999-025DBP", "EPOCH": "2025-12-26T18:44:47.450400", "MEAN_MOTION": 13.86640988, "ECCENTRICITY": 0.01849489, "INCLINATION": 99.9724, "RA_OF_ASC_NODE": 341.4792, "ARG_OF_PERICENTER": 157.823, "MEAN_ANOMALY": 203.1056, "EPHEMERIS_TYPE": 0, "CLASSIFICATION_TYPE": "U", "NORAD_CAT_ID": 32451, "ELEMENT_SET_NO": 999, "REV_AT_EPOCH": 61959, "BSTAR": 0.0017866802, "MEAN_MOTION_DOT": 2.329e-05, "MEAN_MOTION_DDOT": 0}, "tle": {"line1": "1 32451U 99025DBP 25360.78110475  .00002329  00000+0  17867-2 0  9995", "line2": "2 32451  99.9724 341.4792 0184948 157.8230 203.1056 13.86640988619597"}}, "geometry": {"type": "Point", "coordinates": [179.6786684759365, 59.855487057145595]}}, {"type": "Feature", "properties": {"norad_id": 32453, "name": "FENGYUN 1C DEB", "group": "fengyun-1c-debris", "lat": 43.9611100700372, "lon": 100.59007429803496, "alt_km": 821.4509283112175, "timestamp": "2025-12-27T07:26:25.508393+00:00", "meta": {"OBJECT_NAME": "FENGYUN 1C DEB", "OBJECT_ID": "1999-025DBR", "EPOCH": "2025-12-26T11:57:34.403040", "MEAN_MOTION": 14.02277609, "ECCENTRICITY": 0.0096603, "INCLINATION": 99.3716, "RA_OF_ASC_NODE": 270.5918, "ARG_OF_PERICENTER": 167.8789, "MEAN_ANOMALY": 192.4732, "EPHEMERIS_TYPE": 0, "CLASSIFICATION_TYPE": "U", "NORAD_CAT_ID": 32453, "ELEMENT_SET_NO": 999, "REV_AT_EPOCH": 93621, "BSTAR": 0.00058897, "MEAN_MOTION_DOT": 8.94e-06, "MEAN_MOTION_DDOT": 0}, "tle": {"line1": "1 32453U 99025DBR 25360.49831485  .00000894  00000+0  58897-3 0  9990", "line2": "2 32453  99.3716 270.5918 0096603 167.8789 192.4732 14.02277609936213"}}, "geometry": {"type": "Point", "coordinates": [100.59007429803496, 43.9611100700372]}}, {"type": "Feature", "properties": {"norad_id": 32455, "name": "FENGYUN 1C DEB", "group": "fengyun-1c-debris", "lat": 49.704688213691234, "lon": -176.90995496552597, "alt_km": 820.78530314418, "timestamp": "2025-12-27T07:26:25.508403+00:00", "meta": {"OBJECT_NAME": "FENGYUN 1C DEB", "OBJECT_ID": "1999-025DBT", "EPOCH": "2025-12-19T18:08:22.954272", "MEAN_MOTION": 13.92504596, "ECCENTRICITY": 0.02356741, "INCLINATION": 101.733, "RA_OF_ASC_NODE": 187.728, "ARG_OF_PERICENTER": 127.7857, "MEAN_ANOMALY": 234.4892, "EPHEMERIS_TYPE": 0, "CLASSIFICATION_TYPE": "U", "NORAD_CAT_ID": 32455, "ELEMENT_SET_NO": 999, "REV_AT_EPOCH": 64513, "BSTAR": 0.001718498, "MEAN_MOTION_DOT": 2.717e-05, "MEAN_MOTION_DDOT": 0}, "tle": {"line1": "1 32455U 99025DBT 25353.75582123  .00002717  00000+0  17185-2 0  9995", "line2": "2 32455 101.7330 187.7280 0235674 127.7857 234.4892 13.92504596645138"}}, "geometry": {"type": "Point", "coordinates": [-176.90995496552597, 49.704688213691234]}}, {"type": "Feature", "properties": {"norad_id": 32456, "name": "FENGYUN 1C DEB", "group": "fengyun-1c-debris", "lat": -8.718236143844798, "lon": -35.5718467677297, "alt_km": 846.3141317137115, "timestamp": "2025-12-27T07:26:25.508414+00:00", "meta": {"OBJECT_NAME": "FENGYUN 1C DEB", "OBJECT_ID": "1999-025DBU", "EPOCH": "2025-12-17T03:48:04.533120", "MEAN_MOTION": 13.35640436, "ECCENTRICITY": 0.03794971, "INCLINATION": 103.6656, "RA_OF_ASC_NODE": 133.0133, "ARG_OF_PERICENTER": 216.4895, "MEAN_ANOMALY": 140.98, "EPHEMERIS_TYPE": 0, "CLASSIFICATION_TYPE": "U", "NORAD_CAT_ID": 32456, "ELEMENT_SET_NO": 999, "REV_AT_EPOCH": 60675, "BSTAR": 0.0016364212, "MEAN_MOTION_DOT": 1.184e-05, "MEAN_MOTION_DDOT": 0}, "tle": {"line1": "1 32456U 99025DBU 25351.15838580  .00001184  00000+0  16364-2 0  9994", "line2": "2 32456 103.6656 133.0133 0379497 216.4895 140.9800 13.35640436606758"}}, "geometry": {"type": "Point", "coordinates": [-35.5718467677297, -8.718236143844798]}}, {"type": "Feature", "properties": {"norad_id": 32458, "name": "FENGYUN 1C DEB", "group": "fengyun-1c-debris", "lat": 11.243973869405753, "lon": 20.751538245923157, "alt_km": 665.6904980210529, "timestamp": "2025-12-27T07:26:25.508424+00:00", "meta": {"OBJECT_NAME": "FENGYUN 1C DEB", "OBJECT_ID": "1999-025DBW", "EPOCH": "2025-12-24T07:08:24.791424", "MEAN_MOTION": 14.62437066, "ECCENTRICITY": 0.00398704, "INCLINATION": 99.044, "RA_OF_ASC_NODE": 19.2699, "ARG_OF_PERICENTER": 338.3215, "MEAN_ANOMALY": 21.6295, "EPHEMERIS_TYPE": 0, "CLASSIFICATION_TYPE": "U", "NORAD_CAT_ID": 32458, "ELEMENT_SET_NO": 999, "REV_AT_EPOCH": 67958, "BSTAR": 0.0016307189, "MEAN_MOTION_DOT": 8.3e-05, "MEAN_MOTION_DDOT": 0}, "tle": {"line1": "1 32458U 99025DBW 25358.29750916  .00008300  00000+0  16307-2 0  9998", "line2": "2 32458  99.0440  19.2699 0039870 338.3215  21.6295 14.62437066679587"}}, "geometry": {"type": "Point", "coordinates": [20.751538245923157, 11.243973869405753]}}, {"type": "Feature", "properties": {"norad_id": 32459, "name": "FENGYUN 1C DEB", "group": "fengyun-1c-debris", "lat": 44.50021405892479, "lon": -156.5786623357853, "alt_km": 594.0664687196431, "timestamp": "2025-12-27T07:26:25.508434+00:00", "meta": {"OBJECT_NAME": "FENGYUN 1C DEB", "OBJECT_ID": "1999-025DBX", "EPOCH": "2025-12-25T06:33:23.628096", "MEAN_MOTION": 14.42855395, "ECCENTRICITY": 0.0213833, "INCLINATION": 98.3015, "RA_OF_ASC_NODE": 13.1867, "ARG_OF_PERICENTER": 148.4446, "MEAN_ANOMALY": 212.9776, "EPHEMERIS_TYPE": 0, "CLASSIFICATION_TYPE": "U", "NORAD_CAT_ID": 32459, "ELEMENT_SET_NO": 999, "REV_AT_EPOCH": 94731, "BSTAR": 0.00042882, "MEAN_MOTION_DOT": 1.837e-05, "MEAN_MOTION_DDOT": 0}, "tle": {"line1": "1 32459U 99025DBX 25359.27319014  .00001837  00000+0  42882-3 0  9994", "line2": "2 32459  98.3015  13.1867 0213833 148.4446 212.9776 14.42855395947312"}}, "geometry": {"type": "Point", "coordinates": [-156.5786623357853, 44.50021405892479]}}, {"type": "Feature", "properties": {"norad_id": 32460, "name": "FENGYUN 1C DEB", "group": "fengyun-1c-debris", "lat": -81.973846378515, "lon": -125.31123615382955, "alt_km": 1072.3544338091579, "timestamp": "2025-12-27T07:26:25.508444+00:00", "meta": {"OBJECT_NAME": "FENGYUN 1C DEB", "OBJECT_ID": "1999-025DBY", "EPOCH": "2025-12-23T15:45:03.737664", "MEAN_MOTION": 13.89610403, "ECCENTRICITY": 0.01859289, "INCLINATION": 98.0212, "RA_OF_ASC_NODE": 141.3333, "ARG_OF_PERICENTER": 93.8399, "MEAN_ANOMALY": 268.4041, "EPHEMERIS_TYPE": 0, "CLASSIFICATION_TYPE": "U", "NORAD_CAT_ID": 32460, "ELEMENT_SET_NO": 999, "REV_AT_EPOCH": 65405, "BSTAR": 0.00093026192, "MEAN_MOTION_DOT": 1.276e-05, "MEAN_MOTION_DDOT": 0}, "tle": {"line1": "1 32460U 99025DBY 25357.65629326  .00001276  00000+0  93026-3 0  9999", "line2": "2 32460  98.0212 141.3333 0185928  93.8399 268.4041 13.89610403654051"}}, "geometry": {"type": "Point", "coordinates": [-125.31123615382955, -81.973846378515]}}, {"type": "Feature", "properties": {"norad_id": 32461, "name": "FENGYUN 1C DEB", "group": "fengyun-1c-debris", "lat": -35.777619010851296, "lon": 28.551651790261186, "alt_km": 1122.0623473942433, "timestamp": "2025-12-27T07:26:25.508454+00:00", "meta": {"OBJECT_NAME": "FENGYUN 1C DEB", "OBJECT_ID": "1999-025DBZ", "EPOCH": "2025-12-24T02:10:28.329888", "MEAN_MOTION": 13.72863387, "ECCENTRICITY": 0.02328242, "INCLINATION": 98.3337, "RA_OF_ASC_NODE": 211.8091, "ARG_OF_PERICENTER": 86.3573, "MEAN_ANOMALY": 65.2685, "EPHEMERIS_TYPE": 0, "CLASSIFICATION_TYPE": "U", "NORAD_CAT_ID": 32461, "ELEMENT_SET_NO": 999, "REV_AT_EPOCH": 67450, "BSTAR": 0.0012271191, "MEAN_MOTION_DOT": 1.339e-05, "MEAN_MOTION_DDOT": 0}, "tle": {"line1": "1 32461U 99025DBZ 25358.09060567  .00001339  00000+0  12271-2 0  9997", "line2": "2 32461  98.3337 211.8091 0232824  86.3573  65.2685 13.72863387674508"}}, "geometry": {"type": "Point", "coordinates": [28.551651790261186, -35.777619010851296]}}, {"type": "Feature", "properties": {"norad_id": 32464, "name": "FENGYUN 1C DEB", "group": "fengyun-1c-debris", "lat": 65.25917078619516, "lon": -139.03654931688132, "alt_km": 557.7540002399264, "timestamp": "2025-12-27T07:26:25.508465+00:00", "meta": {"OBJECT_NAME": "FENGYUN 1C DEB", "OBJECT_ID": "1999-025DCC", "EPOCH": "2025-12-24T19:25:24.966336", "MEAN_MOTION": 14.9326332, "ECCENTRICITY": 0.01127222, "INCLINATION": 97.3538, "RA_OF_ASC_NODE": 22.3485, "ARG_OF_PERICENTER": 195.2816, "MEAN_ANOMALY": 164.4991, "EPHEMERIS_TYPE": 0, "CLASSIFICATION_TYPE": "U", "NORAD_CAT_ID": 32464, "ELEMENT_SET_NO": 999, "REV_AT_EPOCH": 60972, "BSTAR": 0.0013446377, "MEAN_MOTION_DOT": 0.00015905, "MEAN_MOTION_DDOT": 0}, "tle": {"line1": "1 32464U 99025DCC 25358.80931674  .00015905  00000+0  13446-2 0  9994", "line2": "2 32464  97.3538  22.3485 0112722 195.2816 164.4991 14.93263320609728"}}, "geometry": {"type": "Point", "coordinates": [-139.03654931688132, 65.25917078619516]}}, {"type": "Feature", "properties": {"norad_id": 33502, "name": "FENGYUN 1C DEB", "group": "fengyun-1c-debris", "lat": -43.382345736817626, "lon": 115.76255564752236, "alt_km": 847.6438106414362, "timestamp": "2025-12-27T07:26:25.508475+00:00", "meta": {"OBJECT_NAME": "FENGYUN 1C DEB", "OBJECT_ID": "1999-025DCF", "EPOCH": "2025-12-25T19:13:33.839040", "MEAN_MOTION": 14.21997017, "ECCENTRICITY": 0.00803568, "INCLINATION": 99.0266, "RA_OF_ASC_NODE": 302.8591, "ARG_OF_PERICENTER": 114.9838, "MEAN_ANOMALY": 307.9105, "EPHEMERIS_TYPE": 0, "CLASSIFICATION_TYPE": "U", "NORAD_CAT_ID": 33502, "ELEMENT_SET_NO": 999, "REV_AT_EPOCH": 87141, "BSTAR": 0.0025901334, "MEAN_MOTION_DOT": 5.873e-05, "MEAN_MOTION_DDOT": 0}, "tle": {"line1": "1 33502U 99025DCF 25359.80108610  .00005873  00000+0  25901-2 0  9997", "line2": "2 33502  99.0266 302.8591 0080356 114.9838 307.9105 14.21997017871418"}}, "geometry": {"type": "Point", "coordinates": [115.76255564752236, -43.382345736817626]}}]}